H1 CPF  1  MCC 2022  3 16 10  5751 larets
H2  0304206 5557    27944 2022 03 15 23 55 00 2022 03 21 00 07 00   180 1 1  0 0 0
H9
10 0 59658 68820.000000 0      -558810.612     -1795966.498     -6809235.353
10 0 59658 69000.000000 0      -917383.606      -494664.675     -6988487.863
10 0 59658 69180.000000 0     -1208287.458       833047.283     -6913301.338
10 0 59658 69360.000000 0     -1420991.802      2137280.856     -6586546.119
10 0 59658 69540.000000 0     -1549079.262      3368787.401     -6020130.780
10 0 59658 69720.000000 0     -1590428.238      4480790.481     -5234595.696
10 0 59658 69900.000000 0     -1547204.407      5430756.203     -4258416.170
10 0 59658 70080.000000 0     -1425661.607      6182039.506     -3127021.886
10 0 59658 70260.000000 0     -1235756.281      6705335.557     -1881553.211
10 0 59658 70440.000000 0      -990591.170      6979874.611      -567390.400
10 0 59658 70620.000000 0      -705711.990      6994297.604       767498.696
10 0 59658 70800.000000 0      -398288.835      6747164.432      2074333.190
10 0 59658 70980.000000 0       -86225.491      6247048.714      3305340.818
10 0 59658 71160.000000 0       212754.880      5512219.458      4415529.399
10 0 59658 71340.000000 0       482002.156      4569941.202      5364346.883
10 0 59658 71520.000000 0       706767.648      3455407.770      6117158.767
10 0 59658 71700.000000 0       874927.745      2210388.069      6646482.312
10 0 59658 71880.000000 0       977569.246       881636.593      6932958.873
10 0 59658 72060.000000 0      1009415.182      -480868.999      6966033.821
10 0 59658 72240.000000 0       969075.596     -1825797.480      6744337.000
10 0 59658 72420.000000 0       859112.635     -3102390.968      6275757.500
10 0 59658 72600.000000 0       685915.566     -4262388.460      5577198.930
10 0 59658 72780.000000 0       459390.276     -5261872.964      4674013.809
10 0 59658 72960.000000 0       192477.140     -6062982.118      3599136.878
10 0 59658 73140.000000 0       -99491.814     -6635421.974      2391919.091
10 0 59658 73320.000000 0      -399569.909     -6957696.922      1096688.301
10 0 59658 73500.000000 0      -690068.500     -7017992.060      -238907.547
10 0 59658 73680.000000 0      -953480.918     -6814652.341     -1565716.957
10 0 59658 73860.000000 0     -1173403.095     -6356218.433     -2834966.338
10 0 59658 74040.000000 0     -1335402.447     -5661030.366     -4000113.850
10 0 59658 74220.000000 0     -1427790.194     -4756421.515     -5018595.167
10 0 59658 74400.000000 0     -1442255.563     -3677553.457     -5853378.346
10 0 59658 74580.000000 0     -1374333.811     -2465968.044     -6474273.794
10 0 59658 74760.000000 0     -1223690.115     -1167928.392     -6858965.554
10 0 59658 74940.000000 0      -994212.815       167374.981     -6993740.835
10 0 59658 75120.000000 0      -693915.530      1489681.684     -6873915.858
10 0 59658 75300.000000 0      -334651.980      2749522.545     -6503962.378
10 0 59658 75480.000000 0        68343.982      3900035.607     -5897341.959
10 0 59658 75660.000000 0       497083.915      4898690.388     -5076047.548
10 0 59658 75840.000000 0       931593.530      5708862.495     -4069855.073
10 0 59658 76020.000000 0      1350797.926      6301207.191     -2915296.561
10 0 59658 76200.000000 0      1733489.173      6654771.075     -1654374.330
10 0 59658 76380.000000 0      2059333.875      6757790.045      -333051.215
10 0 59658 76560.000000 0      2309871.678      6608123.854      1000433.904
10 0 59658 76740.000000 0      2469450.966      6213298.305      2297351.910
10 0 59658 76920.000000 0      2526054.636      5590154.695      3510293.112
10 0 59658 77100.000000 0      2471974.608      4764124.164      4594926.706
10 0 59658 77280.000000 0      2304297.429      3768158.886      5511638.180
10 0 59658 77460.000000 0      2025174.735      2641372.604      6226965.515
10 0 59658 77640.000000 0      1641876.918      1427476.767      6714790.300
10 0 59658 77820.000000 0      1166624.595       173069.197      6957260.626
10 0 59658 78000.000000 0       616204.437     -1074152.963      6945416.921
10 0 59658 78180.000000 0        11382.431     -2267197.550      6679522.047
10 0 59658 78360.000000 0      -623872.765     -3361548.257      6169077.290
10 0 59658 78540.000000 0     -1263327.654     -4316836.862      5432515.834
10 0 59658 78720.000000 0     -1879550.732     -5098359.068      4496589.870
10 0 59658 78900.000000 0     -2445083.866     -5678395.592      3395455.975
10 0 59658 79080.000000 0     -2933666.359     -6037271.069      2169453.510
10 0 59658 79260.000000 0     -3321447.690     -6164085.201       863619.316
10 0 59658 79440.000000 0     -3588128.191     -6057081.789      -474003.071
10 0 59658 79620.000000 0     -3717966.853     -5723629.955     -1794192.141
10 0 59658 79800.000000 0     -3700599.893     -5179811.167     -3048431.986
10 0 59658 79980.000000 0     -3531623.648     -4449632.540     -4190757.405
10 0 59658 80160.000000 0     -3212911.109     -3563917.724     -5179469.650
10 0 59658 80340.000000 0     -2752655.098     -2558946.669     -5978651.232
10 0 59658 80520.000000 0     -2165145.011     -1474918.024     -6559429.765
10 0 59658 80700.000000 0     -1470291.113      -354309.050     -6900957.861
10 0 59658 80880.000000 0      -692923.418       759795.003     -6991086.553
10 0 59658 81060.000000 0       138101.874      1825336.467     -6826737.303
10 0 59658 81240.000000 0       990961.838      2802841.115     -6413979.617
10 0 59658 81420.000000 0      1832066.126      3656855.564     -5767816.381
10 0 59658 81600.000000 0      2627359.567      4357222.604     -4911670.673
10 0 59658 81780.000000 0      3343683.940      4880153.680     -3876587.747
10 0 59658 81960.000000 0      3950152.170      5209064.141     -2700161.094
10 0 59658 82140.000000 0      4419480.014      5335130.076     -1425203.945
10 0 59658 82320.000000 0      4729210.283      5257536.345       -98204.845
10 0 59658 82500.000000 0      4862767.231      4983398.374      1232378.754
10 0 59658 82680.000000 0      4810281.027      4527355.063      2517914.715
10 0 59658 82860.000000 0      4569145.906      3910857.975      3711405.005
10 0 59658 83040.000000 0      4144273.607      3161181.954      4769232.715
10 0 59658 83220.000000 0      3548033.680      2310215.033      5652763.078
10 0 59658 83400.000000 0      2799884.697      1393090.794      6329744.084
10 0 59658 83580.000000 0      1925718.960       446728.811      6775451.956
10 0 59658 83760.000000 0       956955.512      -491649.613      6973559.280
10 0 59658 83940.000000 0       -70590.005     -1385976.202      6916715.451
10 0 59658 84120.000000 0     -1118024.230     -2202719.393      6606818.918
10 0 59658 84300.000000 0     -2144839.045     -2912144.708      6054971.729
10 0 59658 84480.000000 0     -3110468.348     -3489409.833      5281125.239
10 0 59658 84660.000000 0     -3975905.284     -3915467.439      4313418.873
10 0 59658 84840.000000 0     -4705314.227     -4177732.074      3187198.010
10 0 59658 85020.000000 0     -5267556.577     -4270479.096      1943744.382
10 0 59658 85200.000000 0     -5637566.301     -4194956.890       628755.245
10 0 59658 85380.000000 0     -5797498.289     -3959195.103      -709378.702
10 0 59658 85560.000000 0     -5737582.972     -3577515.249     -2021420.212
10 0 59658 85740.000000 0     -5456632.905     -3069765.500     -3259171.918
10 0 59658 85920.000000 0     -4962174.908     -2460325.705     -4377301.911
10 0 59658 86100.000000 0     -4270213.368     -1776943.690     -5335027.541
10 0 59658 86280.000000 0     -3404644.441     -1049466.994     -6097591.326
10 0 59659    60.000000 0     -2396359.159      -308534.001     -6637476.286
10 0 59659   240.000000 0     -1282085.518       415711.524     -6935329.691
10 0 59659   420.000000 0      -103024.111      1094827.558     -6980582.468
99
